SHIYAN-1 (SY-1)         
1 28220U 04012A   26068.73650539  .00016393  00000+0  54854-3 0  9991
2 28220  97.8764 140.5238 0005873  23.6952 336.4557 15.31043463195862
STARLINK-30089          
1 56296U 23056L   26068.34242496  .00109192  00000+0  39504-2 0  9994
2 56296  42.9999 171.0972 0001478 246.7575 113.3121 15.27318984160440
